{"fetched_at":"2026-03-29T16:36:15Z","count":15609,"tles":[{"name":"STARLINK-31728","line1":"1 59496U 24071N   26087.76774687  .00028798  00000+0  10514-2 0  9998","line2":"2 59496  42.9984 231.9723 0001509 265.3121  94.7558 15.27596808111128","category":"Starlink"}]}